#aV2019  8 28  0  0  0.00000000     288 DD+AD WGS84 FIT  NGA
## 2068 259200.00000000   300.00000000 58723 0.0000000000000
+   31     1  2  3  5  6  7  8  9 10 11 12 13 14 15 16 17 18
+         19 20 21 22 23 24 25 26 27 28 29 30 31 32  0  0  0
+          0  0  0  0  0  0  0  0  0  0  0  0  0  0  0  0  0
+          0  0  0  0  0  0  0  0  0  0  0  0  0  0  0  0  0
+          0  0  0  0  0  0  0  0  0  0  0  0  0  0  0  0  0
++         2  2  2  2  2  2  2  2  2  2  2  2  2  2  2  2  2
++         2  2  2  2  2  2  2  2  2  2  2  2  2  2  0  0  0
++         0  0  0  0  0  0  0  0  0  0  0  0  0  0  0  0  0
++         0  0  0  0  0  0  0  0  0  0  0  0  0  0  0  0  0
++         0  0  0  0  0  0  0  0  0  0  0  0  0  0  0  0  0
%c cc cc ccc ccc cccc cccc cccc cccc ccccc ccccc ccccc ccccc
%c cc cc ccc ccc cccc cccc cccc cccc ccccc ccccc ccccc ccccc
%f  0.0000000  0.000000000  0.00000000000  0.000000000000000
%f  0.0000000  0.000000000  0.00000000000  0.000000000000000
%i    0    0    0    0      0      0      0      0         0
%i    0    0    0    0      0      0      0      0         0
/*      NGA, ST. LOUIS,MO.                                  
/*   EPHEMERIS COMPUTED FROM 2 DAYS OF DATA                 
/*   EPOCHA v5 SMOOTHER                                     
/*   G1762 IERS2010 SATAF SATAPC                            
*  2019  8 28  3 35  0.00000000
P  1 -22261.688073 -13920.517728   4819.416985   -110.202806                    
V  1  -3612.343853  -5556.840881 -31115.081679     -0.119051                    
P  2  10960.813855  20038.985799  14281.760856   -292.480742                    
V  2 -15115.670852  -8172.656409  23977.050553     -0.082682                    
P  3 -13707.781816  -7956.398905  21274.525095     -5.326595                    
V  3   4719.271493 -26701.412007  -6838.818459     -0.034654                    
P  5   3817.370464  24406.111660  -9615.774923     -0.942458                    
V  5  -4441.414064  11635.117916  28359.555693     -0.002983                    
P  6  -4236.410380  15168.240797  21421.695379    -38.731020                    
V  6 -21476.986619 -16483.223627   7466.001467     -0.120957                    
P  7 -20495.386019  -1498.477691 -16807.310556    -94.250049                    
V  7 -15649.992149 -15137.661180  19627.793819     -0.079048                    
P  8 -15894.011359  -8120.918885 -19702.075868     -4.350570                    
V  8  22794.464670 -10310.264384 -13913.956470     -0.014244                    
P  9 -25242.606445   7362.823225   3730.248751    -16.985219                    
V  9   3304.282962  -4610.737370  31096.545653     -0.091819                    
P 10  11398.334314 -20774.304711 -11719.411204    -30.882135                    
V 10    167.795340  15248.632921 -26930.571420     -0.146464                    
P 11 -24280.804748  -9441.568849  -4834.512813   -523.294751                    
V 11   6467.201478  -3101.314837 -29947.274985      0.104243                    
P 12  11169.642533  12493.251933  20432.521192    209.780384                    
V 12  -6531.904149  25516.566031 -11751.323156     -0.037481                    
P 13   5262.100535  14230.792531 -21913.499607    -47.430105                    
V 13 -26671.519660   6833.518439  -1916.631329      0.019782                    
P 14   9843.728496 -16512.675227  18576.654577    -64.350749                    
V 14  22453.935170  -5146.439510 -16949.731533      0.019451                    
P 15  17457.417417   7202.179272 -19096.497004   -291.099906                    
V 15 -20458.277039  11977.947638 -14001.840727      0.026764                    
P 16   -297.492160 -24725.118131  -9270.670681    -68.869620                    
V 16   4936.883446 -10743.980234  29504.545491     -0.034009                    
P 17 -17722.577359  15021.282959  13203.872548    114.772688                    
V 17 -15792.231052   3464.506512 -26032.894139      0.069736                    
P 18 -19410.072773 -17811.040273  -4323.911544     81.279286                    
V 18   5576.069448    574.398607 -30927.755113      0.029564                    
P 19 -12904.978598  15401.928012  17086.139052   -275.076044                    
V 19 -21795.898289   4563.281947 -20183.812204      0.050947                    
P 20  14180.929771 -12683.521029 -18569.559849    526.644299                    
V 20   1212.251472  23573.608575 -15432.922383      0.001436                    
P 21  17460.974557  -4080.923618 -18746.145085   -128.811798                    
V 21  19868.142150  16225.338683  14555.596528      0.065838                    
P 22 -12305.527432 -15461.345132  18012.431784   -748.733039                    
V 22   3708.986420 -22284.523979 -16709.348845     -0.041579                    
P 23 -22472.336309  -2213.674541  14632.482756   -169.954150                    
V 23  15724.135868  -8777.042223  22983.053142      0.019894                    
P 24  22422.552064  14440.715743   1863.175228     -1.369764                    
V 24    162.918408   4123.998490 -30895.083582     -0.004786                    
P 25  15264.213170  -3078.318486  21269.938950     -9.594710                    
V 25  -3630.157736  27289.267025   6733.994485     -0.018399                    
P 26   4414.889245 -26042.692737   1539.108862     25.421482                    
V 26   3022.786194   2387.553377  31564.103445      0.089264                    
P 27  -2381.253192 -14911.039810 -21937.325397    -37.350005                    
V 27  25816.178181  -9658.890142   4073.725568     -0.117761                    
P 28 -12527.705150  20560.006293 -10721.970086    763.724831                    
V 28   1585.690537 -14515.493907 -28018.022774     -0.008830                    
P 29  25539.993305  -3622.367049   6343.869270    113.378786                    
V 29  -7127.401839   4258.307787  30929.865981     -0.100672                    
P 30 -13172.510762   9058.433223 -21198.402685    -28.633654                    
V 30 -20093.295555 -18113.295338   4541.765872     -0.078677                    
P 31   3230.944514 -16270.256958  20637.853760     14.354499                    
V 31  20766.266426  16233.596590   9983.303629     -0.025901                    
P 32  17275.141046 -16062.903271  12145.663067     35.616407                    
V 32  15222.398738  -3333.579734 -26316.766935      0.141424                    
EOF
